0 ARIANE 5 R/B
1 30795U 07007C   13282.58072837  .00001810  00000-0  62408-3 0  6567
2 30795 004.4559 012.7193 7190772 058.1397 010.8328 02.38898694 55988
0 ARIANE 5 R/B
1 30795U 07007C   13285.50857861  .00002137  00000-0  67485-3 0  6585
2 30795 004.4586 011.5360 7191057 060.5900 008.9270 02.38909470 56053
0 ARIANE 5 R/B
1 30795U 07007C   13286.78179611  .00002550  00000-0  81584-3 0  6592
2 30795 004.4598 011.0197 7191227 061.6559 024.0041 02.38912001 56082
0 ARIANE 5 R/B
1 30795U 07007C   13287.98347696  .00002832  00000-0  92640-3 0  6605
2 30795 004.4607 010.5335 7191387 062.6618 337.5537 02.38920101 56100
0 ARIANE 5 R/B
1 30795U 07007C   13289.61321398  .00002674  00000-0  91199-3 0  6611
2 30795 004.4620 009.8738 7191623 064.0254 299.3266 02.38927564 56146
0 ARIANE 5 R/B
1 30795U 07007C   13290.51018289  .00002103  00000-0  60161-3 0  6638
2 30795 004.4677 009.5413 7193823 064.7470 350.8442 02.38932236 56169
0 ARIANE 5 R/B
1 30795U 07007C   13290.51018358  .00002201  00000-0  62569-3 0  6627
2 30795 004.4654 009.5444 7193963 064.7464 350.8452 02.38931280 56165
0 ARIANE 5 R/B
1 30795U 07007C   13291.70490325  .00002596  00000-0  91965-3 0  6626
2 30795 004.4635 009.0241 7191897 065.7806 298.4927 02.38937482 56196
0 ARIANE 5 R/B
1 30795U 07007C   13293.01096462  .00002481  00000-0  88364-3 0  6639
2 30795 004.4644 008.4973 7192055 066.8735 341.9364 02.38945457 56225
0 ARIANE 5 R/B
1 30795U 07007C   13294.28041677  .00002442  00000-0  85442-3 0  6649
2 30795 004.4653 007.9841 7192222 067.9370 353.9207 02.38954265 56266
0 ARIANE 5 R/B
1 30795U 07007C   13295.55581803  .00002727  00000-0  91212-3 0  6659
2 30795 004.4663 007.4637 7192387 069.0098 011.0662 02.38960232 56298
